{
  "type": "FeatureCollection",
  "features": [
    {
      "type": "Feature",
      "properties": {
        "norad_id": 35448,
        "name": "COSMOS 2251 DEB",
        "group": "cosmos-2251-debris",
        "lat": 3.709218825364659,
        "lon": -74.25438720380548,
        "alt_km": 716.9857326211368,
        "timestamp": "2025-12-03T15:48:03.462292+00:00",
        "meta_object_name": "COSMOS 2251 DEB",
        "meta_object_id": "1993-036AKS",
        "meta_epoch": "2025-11-30T02:46:57.396576",
        "meta_mean_motion": 14.54072836,
        "meta_eccentricity": 0.00108374,
        "meta_inclination": 73.9021,
        "meta_ra_of_asc_node": 113.5661,
        "meta_arg_of_pericenter": 293.2846,
        "meta_mean_anomaly": 66.7175,
        "meta_ephemeris_type": 0,
        "meta_classification_type": "U",
        "meta_norad_cat_id": 35448,
        "meta_element_set_no": 999,
        "meta_rev_at_epoch": 87151,
        "meta_bstar": 0.0011243379,
        "meta_mean_motion_dot": 4.725e-05,
        "meta_mean_motion_ddot": 0,
        "tle_line1": "1 35448U 93036AKS 25334.11594209  .00004725  00000+0  11243-2 0  9993",
        "tle_line2": "2 35448  73.9021 113.5661 0010837 293.2846  66.7175 14.54072836871518"
      },
      "geometry": {
        "type": "Point",
        "coordinates": [
          -74.25438720380548,
          3.709218825364659
        ]
      }
    },
    {
      "type": "Feature",
      "properties": {
        "norad_id": 35451,
        "name": "COSMOS 2251 DEB",
        "group": "cosmos-2251-debris",
        "lat": 72.20873703669302,
        "lon": -173.79694064076156,
        "alt_km": 447.55310423601804,
        "timestamp": "2025-12-03T15:48:03.462301+00:00",
        "meta_object_name": "COSMOS 2251 DEB",
        "meta_object_id": "1993-036AKV",
        "meta_epoch": "2025-12-02T09:42:30.995424",
        "meta_mean_motion": 15.34019463,
        "meta_eccentricity": 0.00397741,
        "meta_inclination": 73.9303,
        "meta_ra_of_asc_node": 124.9673,
        "meta_arg_of_pericenter": 13.4643,
        "meta_mean_anomaly": 346.7612,
        "meta_ephemeris_type": 0,
        "meta_classification_type": "U",
        "meta_norad_cat_id": 35451,
        "meta_element_set_no": 999,
        "meta_rev_at_epoch": 67247,
        "meta_bstar": 0.0016761251,
        "meta_mean_motion_dot": 0.00056987,
        "meta_mean_motion_ddot": 0,
        "tle_line1": "1 35451U 93036AKV 25336.40452541  .00056987  00000+0  16761-2 0  9990",
        "tle_line2": "2 35451  73.9303 124.9673 0039774  13.4643 346.7612 15.34019463672479"
      },
      "geometry": {
        "type": "Point",
        "coordinates": [
          -173.79694064076156,
          72.20873703669302
        ]
      }
    },
    {
      "type": "Feature",
      "properties": {
        "norad_id": 35453,
        "name": "COSMOS 2251 DEB",
        "group": "cosmos-2251-debris",
        "lat": 37.67603400309628,
        "lon": 49.920533478453585,
        "alt_km": 795.7029046293919,
        "timestamp": "2025-12-03T15:48:03.462310+00:00",
        "meta_object_name": "COSMOS 2251 DEB",
        "meta_object_id": "1993-036AKX",
        "meta_epoch": "2025-12-02T12:53:58.122528",
        "meta_mean_motion": 14.3790654,
        "meta_eccentricity": 0.00680216,
        "meta_inclination": 74.0102,
        "meta_ra_of_asc_node": 39.1945,
        "meta_arg_of_pericenter": 175.6131,
        "meta_mean_anomaly": 184.5634,
        "meta_ephemeris_type": 0,
        "meta_classification_type": "U",
        "meta_norad_cat_id": 35453,
        "meta_element_set_no": 999,
        "meta_rev_at_epoch": 86072,
        "meta_bstar": 0.00098540606,
        "meta_mean_motion_dot": 3.03e-05,
        "meta_mean_motion_ddot": 0,
        "tle_line1": "1 35453U 93036AKX 25336.53747827  .00003030  00000+0  98541-3 0  9998",
        "tle_line2": "2 35453  74.0102  39.1945 0068021 175.6131 184.5634 14.37906540860721"
      },
      "geometry": {
        "type": "Point",
        "coordinates": [
          49.920533478453585,
          37.67603400309628
        ]
      }
    },
    {
      "type": "Feature",
      "properties": {
        "norad_id": 35455,
        "name": "COSMOS 2251 DEB",
        "group": "cosmos-2251-debris",
        "lat": -57.91580212035621,
        "lon": 159.03524290097204,
        "alt_km": 804.9100199390878,
        "timestamp": "2025-12-03T15:48:03.462319+00:00",
        "meta_object_name": "COSMOS 2251 DEB",
        "meta_object_id": "1993-036AKZ",
        "meta_epoch": "2025-12-02T08:52:17.921568",
        "meta_mean_motion": 14.49202551,
        "meta_eccentricity": 0.00987049,
        "meta_inclination": 74.0278,
        "meta_ra_of_asc_node": 314.2686,
        "meta_arg_of_pericenter": 60.4192,
        "meta_mean_anomaly": 300.6759,
        "meta_ephemeris_type": 0,
        "meta_classification_type": "U",
        "meta_norad_cat_id": 35455,
        "meta_element_set_no": 999,
        "meta_rev_at_epoch": 86393,
        "meta_bstar": 0.0016096128,
        "meta_mean_motion_dot": 6.5e-05,
        "meta_mean_motion_ddot": 0,
        "tle_line1": "1 35455U 93036AKZ 25336.36965187  .00006500  00000+0  16096-2 0  9991",
        "tle_line2": "2 35455  74.0278 314.2686 0098704  60.4192 300.6759 14.49202551863934"
      },
      "geometry": {
        "type": "Point",
        "coordinates": [
          159.03524290097204,
          -57.91580212035621
        ]
      }
    },
    {
      "type": "Feature",
      "properties": {
        "norad_id": 35456,
        "name": "COSMOS 2251 DEB",
        "group": "cosmos-2251-debris",
        "lat": -47.443293825395536,
        "lon": 116.88040380830785,
        "alt_km": 633.6103983106022,
        "timestamp": "2025-12-03T15:48:03.462328+00:00",
        "meta_object_name": "COSMOS 2251 DEB",
        "meta_object_id": "1993-036ALA",
        "meta_epoch": "2025-12-03T02:57:04.162176",
        "meta_mean_motion": 14.69114044,
        "meta_eccentricity": 0.0065078,
        "meta_inclination": 73.9488,
        "meta_ra_of_asc_node": 136.1966,
        "meta_arg_of_pericenter": 348.2042,
        "meta_mean_anomaly": 11.7599,
        "meta_ephemeris_type": 0,
        "meta_classification_type": "U",
        "meta_norad_cat_id": 35456,
        "meta_element_set_no": 999,
        "meta_rev_at_epoch": 65734,
        "meta_bstar": 0.0020335199,
        "meta_mean_motion_dot": 0.00012335,
        "meta_mean_motion_ddot": 0,
        "tle_line1": "1 35456U 93036ALA 25337.12296484  .00012335  00000+0  20335-2 0  9998",
        "tle_line2": "2 35456  73.9488 136.1966 0065078 348.2042  11.7599 14.69114044657346"
      },
      "geometry": {
        "type": "Point",
        "coordinates": [
          116.88040380830785,
          -47.443293825395536
        ]
      }
    },
    {
      "type": "Feature",
      "properties": {
        "norad_id": 35459,
        "name": "COSMOS 2251 DEB",
        "group": "cosmos-2251-debris",
        "lat": -62.73812394241175,
        "lon": 169.99834296546433,
        "alt_km": 782.5362804791721,
        "timestamp": "2025-12-03T15:48:03.462337+00:00",
        "meta_object_name": "COSMOS 2251 DEB",
        "meta_object_id": "1993-036ALD",
        "meta_epoch": "2025-12-01T22:21:32.007744",
        "meta_mean_motion": 14.37436198,
        "meta_eccentricity": 0.00166822,
        "meta_inclination": 73.8706,
        "meta_ra_of_asc_node": 207.3714,
        "meta_arg_of_pericenter": 158.6603,
        "meta_mean_anomaly": 201.5249,
        "meta_ephemeris_type": 0,
        "meta_classification_type": "U",
        "meta_norad_cat_id": 35459,
        "meta_element_set_no": 999,
        "meta_rev_at_epoch": 58206,
        "meta_bstar": 0.00027997141,
        "meta_mean_motion_dot": 8.11e-06,
        "meta_mean_motion_ddot": 0,
        "tle_line1": "1 35459U 93036ALD 25335.93162046  .00000811  00000+0  27997-3 0  9992",
        "tle_line2": "2 35459  73.8706 207.3714 0016682 158.6603 201.5249 14.37436198582065"
      },
      "geometry": {
        "type": "Point",
        "coordinates": [
          169.99834296546433,
          -62.73812394241175
        ]
      }
    },
    {
      "type": "Feature",
      "properties": {
        "norad_id": 35462,
        "name": "COSMOS 2251 DEB",
        "group": "cosmos-2251-debris",
        "lat": -72.97944531160404,
        "lon": 174.4187732537295,
        "alt_km": 768.1978622920224,
        "timestamp": "2025-12-03T15:48:03.462346+00:00",
        "meta_object_name": "COSMOS 2251 DEB",
        "meta_object_id": "1993-036ALG",
        "meta_epoch": "2025-12-01T03:45:45.448128",
        "meta_mean_motion": 14.29124029,
        "meta_eccentricity": 0.00870444,
        "meta_inclination": 74.036,
        "meta_ra_of_asc_node": 289.718,
        "meta_arg_of_pericenter": 327.319,
        "meta_mean_anomaly": 32.2589,
        "meta_ephemeris_type": 0,
        "meta_classification_type": "U",
        "meta_norad_cat_id": 35462,
        "meta_element_set_no": 999,
        "meta_rev_at_epoch": 66215,
        "meta_bstar": 0.0017949723,
        "meta_mean_motion_dot": 4.718e-05,
        "meta_mean_motion_ddot": 0,
        "tle_line1": "1 35462U 93036ALG 25335.15677602  .00004718  00000+0  17950-2 0  9996",
        "tle_line2": "2 35462  74.0360 289.7180 0087044 327.3190  32.2589 14.29124029662158"
      },
      "geometry": {
        "type": "Point",
        "coordinates": [
          174.4187732537295,
          -72.97944531160404
        ]
      }
    }
  ]
}